[{"OBJECT_NAME":"TEVEL2-5","OBJECT_ID":"2025-052E","EPOCH":"2026-03-09T23:11:54.246048","MEAN_MOTION":15.30817434,"ECCENTRICITY":0.00047002,"INCLINATION":97.4013,"RA_OF_ASC_NODE":325.3677,"ARG_OF_PERICENTER":95.3936,"MEAN_ANOMALY":264.7842,"EPHEMERIS_TYPE":0,"CLASSIFICATION_TYPE":"U","NORAD_CAT_ID":63214,"ELEMENT_SET_NO":999,"REV_AT_EPOCH":5491,"BSTAR":0.00071764727,"MEAN_MOTION_DOT":0.00021339,"MEAN_MOTION_DDOT":0},{"OBJECT_NAME":"STARLINK-33643","OBJECT_ID":"2025-063U","EPOCH":"2026-03-09T23:20:24.038880","MEAN_MOTION":15.30229159,"ECCENTRICITY":0.00014337,"INCLINATION":53.1595,"RA_OF_ASC_NODE":51.0827,"ARG_OF_PERICENTER":96.2167,"MEAN_ANOMALY":263.8997,"EPHEMERIS_TYPE":0,"CLASSIFICATION_TYPE":"U","NORAD_CAT_ID":63381,"ELEMENT_SET_NO":999,"REV_AT_EPOCH":5480,"BSTAR":0.0015195335,"MEAN_MOTION_DOT":0.00044959,"MEAN_MOTION_DDOT":0}]
